[{"OBJECT_NAME":"ONEWEB-0685","OBJECT_ID":"2022-166AP","EPOCH":"2026-05-21T05:17:30.710112","MEAN_MOTION":13.21818925,"ECCENTRICITY":0.0002128,"INCLINATION":87.9251,"RA_OF_ASC_NODE":249.3477,"ARG_OF_PERICENTER":93.955,"MEAN_ANOMALY":266.1828,"EPHEMERIS_TYPE":0,"CLASSIFICATION_TYPE":"U","NORAD_CAT_ID":54679,"ELEMENT_SET_NO":999,"REV_AT_EPOCH":16785,"BSTAR":0.00012999,"MEAN_MOTION_DOT":6.7e-07,"MEAN_MOTION_DDOT":0.0},{"OBJECT_NAME":"ONEWEB-0712","OBJECT_ID":"2022-166AQ","EPOCH":"2026-05-21T05:35:38.016096","MEAN_MOTION":13.16595939,"ECCENTRICITY":0.000203,"INCLINATION":87.9109,"RA_OF_ASC_NODE":234.1255,"ARG_OF_PERICENTER":86.8398,"MEAN_ANOMALY":273.2965,"EPHEMERIS_TYPE":0,"CLASSIFICATION_TYPE":"U","NORAD_CAT_ID":54680,"ELEMENT_SET_NO":999,"REV_AT_EPOCH":16851,"BSTAR":0.0002908,"MEAN_MOTION_DOT":1.24e-06,"MEAN_MOTION_DDOT":0.0},{"OBJECT_NAME":"ONEWEB-0714","OBJECT_ID":"2022-166AR","EPOCH":"2026-05-20T23:57:29.954304","MEAN_MOTION":13.21827246,"ECCENTRICITY":0.0002016,"INCLINATION":87.9252,"RA_OF_ASC_NODE":249.3885,"ARG_OF_PERICENTER":94.1339,"MEAN_ANOMALY":266.0026,"EPHEMERIS_TYPE":0,"CLASSIFICATION_TYPE":"U","NORAD_CAT_ID":54681,"ELEMENT_SET_NO":999,"REV_AT_EPOCH":16794,"BSTAR":0.00020786,"MEAN_MOTION_DOT":9.9e-07,"MEAN_MOTION_DDOT":0.0},{"OBJECT_NAME":"ONEWEB-0532","OBJECT_ID":"2023-004A","EPOCH":"2026-05-21T03:38:47.113152","MEAN_MOTION":13.17650966,"ECCENTRICITY":0.0001937,"INCLINATION":87.9155,"RA_OF_ASC_NODE":11.2409,"ARG_OF_PERICENTER":94.1755,"MEAN_ANOMALY":265.9598,"EPHEMERIS_TYPE":0,"CLASSIFICATION_TYPE":"U","NORAD_CAT_ID":55140,"ELEMENT_SET_NO":999,"REV_AT_EPOCH":16402,"BSTAR":0.00017634,"MEAN_MOTION_DOT":8.1e-07,"MEAN_MOTION_DDOT":0.0},{"OBJECT_NAME":"ONEWEB-0533","OBJECT_ID":"2023-004B","EPOCH":"2026-05-21T02:07:05.381472","MEAN_MOTION":13.12442477,"ECCENTRICITY":0.0002049,"INCLINATION":87.8969,"RA_OF_ASC_NODE":356.059,"ARG_OF_PERICENTER":83.8038,"MEAN_ANOMALY":276.3324,"EPHEMERIS_TYPE":0,"CLASSIFICATION_TYPE":"U","NORAD_CAT_ID":55141,"ELEMENT_SET_NO":999,"REV_AT_EPOCH":16450,"BSTAR":-0.0016048000000000002,"MEAN_MOTION_DOT":-5.65e-06,"MEAN_MOTION_DDOT":0.0},{"OBJECT_NAME":"ONEWEB-0541","OBJECT_ID":"2023-004C","EPOCH":"2026-05-21T04:09:28.300608","MEAN_MOTION":13.11416938,"ECCENTRICITY":0.000168,"INCLINATION":87.8921,"RA_OF_ASC_NODE":26.4299,"ARG_OF_PERICENTER":85.0637,"MEAN_ANOMALY":275.0683,"EPHEMERIS_TYPE":0,"CLASSIFICATION_TYPE":"U","NORAD_CAT_ID":55142,"ELEMENT_SET_NO":999,"REV_AT_EPOCH":16240,"BSTAR":-0.0014901,"MEAN_MOTION_DOT":-5.15e-06,"MEAN_MOTION_DDOT":0.0},{"OBJECT_NAME":"ONEWEB-0543","OBJECT_ID":"2023-004D","EPOCH":"2026-05-21T01:49:22.558656","MEAN_MOTION":13.1868718,"ECCENTRICITY":0.0001802,"INCLINATION":87.9162,"RA_OF_ASC_NODE":340.8672,"ARG_OF_PERICENTER":80.6041,"MEAN_ANOMALY":279.5295,"EPHEMERIS_TYPE":0,"CLASSIFICATION_TYPE":"U","NORAD_CAT_ID":55143,"ELEMENT_SET_NO":999,"REV_AT_EPOCH":16612,"BSTAR":-2.1776000000000003e-05,"MEAN_MOTION_DOT":4e-08,"MEAN_MOTION_DDOT":0.0},{"OBJECT_NAME":"ONEWEB-0544","OBJECT_ID":"2023-004E","EPOCH":"2026-05-21T01:39:39.937536","MEAN_MOTION":13.18685253,"ECCENTRICITY":0.0001646,"INCLINATION":87.9161,"RA_OF_ASC_NODE":340.8681,"ARG_OF_PERICENTER":85.8184,"MEAN_ANOMALY":274.3136,"EPHEMERIS_TYPE":0,"CLASSIFICATION_TYPE":"U","NORAD_CAT_ID":55144,"ELEMENT_SET_NO":999,"REV_AT_EPOCH":16612,"BSTAR":1.8065e-05,"MEAN_MOTION_DOT":2e-07,"MEAN_MOTION_DDOT":0.0},{"OBJECT_NAME":"ONEWEB-0560","OBJECT_ID":"2023-004F","EPOCH":"2026-05-21T06:57:44.643456","MEAN_MOTION":13.18684334,"ECCENTRICITY":0.0001648,"INCLINATION":87.9162,"RA_OF_ASC_NODE":340.8132,"ARG_OF_PERICENTER":82.2231,"MEAN_ANOMALY":277.9088,"EPHEMERIS_TYPE":0,"CLASSIFICATION_TYPE":"U","NORAD_CAT_ID":55145,"ELEMENT_SET_NO":999,"REV_AT_EPOCH":16616,"BSTAR":-0.0001116,"MEAN_MOTION_DOT":-3.1e-07,"MEAN_MOTION_DDOT":0.0},{"OBJECT_NAME":"ONEWEB-0565","OBJECT_ID":"2023-004G","EPOCH":"2026-05-21T06:48:01.376064","MEAN_MOTION":13.18685402,"ECCENTRICITY":0.0001544,"INCLINATION":87.9151,"RA_OF_ASC_NODE":340.845,"ARG_OF_PERICENTER":98.0684,"MEAN_ANOMALY":262.0623,"EPHEMERIS_TYPE":0,"CLASSIFICATION_TYPE":"U","NORAD_CAT_ID":55146,"ELEMENT_SET_NO":999,"REV_AT_EPOCH":16615,"BSTAR":4.1582e-05,"MEAN_MOTION_DOT":2.9e-07,"MEAN_MOTION_DDOT":0.0},{"OBJECT_NAME":"ONEWEB-0567","OBJECT_ID":"2023-004H","EPOCH":"2026-05-21T06:38:18.905280","MEAN_MOTION":13.18684928,"ECCENTRICITY":0.0001484,"INCLINATION":87.9163,"RA_OF_ASC_NODE":340.8283,"ARG_OF_PERICENTER":91.9263,"MEAN_ANOMALY":268.2039,"EPHEMERIS_TYPE":0,"CLASSIFICATION_TYPE":"U","NORAD_CAT_ID":55147,"ELEMENT_SET_NO":999,"REV_AT_EPOCH":16615,"BSTAR":-2.4535e-05,"MEAN_MOTION_DOT":3e-08,"MEAN_MOTION_DDOT":0.0},{"OBJECT_NAME":"ONEWEB-0569","OBJECT_ID":"2023-004J","EPOCH":"2026-05-21T06:28:28.373376","MEAN_MOTION":13.13471855,"ECCENTRICITY":9.24e-05,"INCLINATION":87.8949,"RA_OF_ASC_NODE":325.5807,"ARG_OF_PERICENTER":76.9277,"MEAN_ANOMALY":283.1956,"EPHEMERIS_TYPE":0,"CLASSIFICATION_TYPE":"U","NORAD_CAT_ID":55148,"ELEMENT_SET_NO":999,"REV_AT_EPOCH":16664,"BSTAR":0.0009650300000000001,"MEAN_MOTION_DOT":3.65e-06,"MEAN_MOTION_DDOT":0.0},{"OBJECT_NAME":"ONEWEB-0570","OBJECT_ID":"2023-004K","EPOCH":"2026-05-21T06:26:11.398272","MEAN_MOTION":13.18688055,"ECCENTRICITY":0.0001932,"INCLINATION":87.9159,"RA_OF_ASC_NODE":340.8281,"ARG_OF_PERICENTER":101.0791,"MEAN_ANOMALY":259.0558,"EPHEMERIS_TYPE":0,"CLASSIFICATION_TYPE":"U","NORAD_CAT_ID":55149,"ELEMENT_SET_NO":999,"REV_AT_EPOCH":16614,"BSTAR":0.00013351,"MEAN_MOTION_DOT":6.6e-07,"MEAN_MOTION_DDOT":0.0},{"OBJECT_NAME":"ONEWEB-0571","OBJECT_ID":"2023-004L","EPOCH":"2026-05-21T02:37:57.138240","MEAN_MOTION":13.18687532,"ECCENTRICITY":7.96e-05,"INCLINATION":87.9162,"RA_OF_ASC_NODE":340.8588,"ARG_OF_PERICENTER":119.0241,"MEAN_ANOMALY":241.0971,"EPHEMERIS_TYPE":0,"CLASSIFICATION_TYPE":"U","NORAD_CAT_ID":55150,"ELEMENT_SET_NO":999,"REV_AT_EPOCH":16613,"BSTAR":-1.1177e-05,"MEAN_MOTION_DOT":8e-08,"MEAN_MOTION_DDOT":0.0},{"OBJECT_NAME":"ONEWEB-0572","OBJECT_ID":"2023-004M","EPOCH":"2026-05-21T04:22:31.774080","MEAN_MOTION":13.17650943,"ECCENTRICITY":0.0001649,"INCLINATION":87.9156,"RA_OF_ASC_NODE":11.2359,"ARG_OF_PERICENTER":87.5199,"MEAN_ANOMALY":272.6121,"EPHEMERIS_TYPE":0,"CLASSIFICATION_TYPE":"U","NORAD_CAT_ID":55151,"ELEMENT_SET_NO":999,"REV_AT_EPOCH":16392,"BSTAR":0.0001235,"MEAN_MOTION_DOT":6.1e-07,"MEAN_MOTION_DDOT":0.0},{"OBJECT_NAME":"ONEWEB-0573","OBJECT_ID":"2023-004N","EPOCH":"2026-05-21T06:06:45.561600","MEAN_MOTION":13.18686313,"ECCENTRICITY":0.0001103,"INCLINATION":87.9163,"RA_OF_ASC_NODE":340.8313,"ARG_OF_PERICENTER":108.4062,"MEAN_ANOMALY":251.719,"EPHEMERIS_TYPE":0,"CLASSIFICATION_TYPE":"U","NORAD_CAT_ID":55152,"ELEMENT_SET_NO":999,"REV_AT_EPOCH":16614,"BSTAR":-0.00012775000000000002,"MEAN_MOTION_DOT":-3.7e-07,"MEAN_MOTION_DDOT":0.0}]