ONEWEB-0685             
1 54679U 22166AP  26141.22049433  .00000067  00000+0  12999-3 0  9994
2 54679  87.9251 249.3477 0002128  93.9550 266.1828 13.21818925167855
ONEWEB-0712             
1 54680U 22166AQ  26141.23307889  .00000124  00000+0  29080-3 0  9992
2 54680  87.9109 234.1255 0002030  86.8398 273.2965 13.16595939168514
ONEWEB-0714             
1 54681U 22166AR  26140.99826336  .00000099  00000+0  20786-3 0  9993
2 54681  87.9252 249.3885 0002016  94.1339 266.0026 13.21827246167941
ONEWEB-0532             
1 55140U 23004A   26141.15193418  .00000081  00000+0  17634-3 0  9992
2 55140  87.9155  11.2409 0001937  94.1755 265.9598 13.17650966164021
ONEWEB-0533             
1 55141U 23004B   26141.08825673 -.00000565  00000+0 -16048-2 0  9996
2 55141  87.8969 356.0590 0002049  83.8038 276.3324 13.12442477164506
ONEWEB-0541             
1 55142U 23004C   26141.17324422 -.00000515  00000+0 -14901-2 0  9994
2 55142  87.8921  26.4299 0001680  85.0637 275.0683 13.11416938162401
ONEWEB-0543             
1 55143U 23004D   26141.07595554  .00000004  00000+0 -21776-4 0  9992
2 55143  87.9162 340.8672 0001802  80.6041 279.5295 13.18687180166121
ONEWEB-0544             
1 55144U 23004E   26141.06921224  .00000020  00000+0  18065-4 0  9993
2 55144  87.9161 340.8681 0001646  85.8184 274.3136 13.18685253166128
ONEWEB-0560             
1 55145U 23004F   26141.29010004 -.00000031  00000+0 -11160-3 0  9996
2 55145  87.9162 340.8132 0001648  82.2231 277.9088 13.18684334166165
ONEWEB-0565             
1 55146U 23004G   26141.28334926  .00000029  00000+0  41582-4 0  9995
2 55146  87.9151 340.8450 0001544  98.0684 262.0623 13.18685402166155
ONEWEB-0567             
1 55147U 23004H   26141.27660770  .00000003  00000+0 -24535-4 0  9996
2 55147  87.9163 340.8283 0001484  91.9263 268.2039 13.18684928166152
ONEWEB-0569             
1 55148U 23004J   26141.26977284  .00000365  00000+0  96503-3 0  9990
2 55148  87.8949 325.5807 0000924  76.9277 283.1956 13.13471855166648
ONEWEB-0570             
1 55149U 23004K   26141.26818748  .00000066  00000+0  13351-3 0  9998
2 55149  87.9159 340.8281 0001932 101.0791 259.0558 13.18688055166142
ONEWEB-0571             
1 55150U 23004L   26141.10968910  .00000008  00000+0 -11177-4 0  9992
2 55150  87.9162 340.8588 0000796 119.0241 241.0971 13.18687532166132
ONEWEB-0572             
1 55151U 23004M   26141.18231220  .00000061  00000+0  12350-3 0  9999
2 55151  87.9156  11.2359 0001649  87.5199 272.6121 13.17650943163926
ONEWEB-0573             
1 55152U 23004N   26141.25469400 -.00000037  00000+0 -12775-3 0  9997
2 55152  87.9163 340.8313 0001103 108.4062 251.7190 13.18686313166145
